COSMOS 2058             
1 20465U 90010A   26085.26582260  .00004552  00000+0  26739-3 0  9994
2 20465  82.4683  31.0934 0007437 279.6931  80.3459 15.11465822944740
SL-14 R/B               
1 20466U 90010B   26084.94145977  .00000491  00000+0  56574-4 0  9998
2 20466  82.4992 252.1182 0018465 244.5080 115.4226 14.83583098930891
SL-14 R/B               
1 20511U 90018B   26085.31244000  .00000465  00000+0  55349-4 0  9996
2 20511  82.5233 207.5551 0017122  41.4154 318.8355 14.82161042925043
HST                     
1 20580U 90037B   26085.25385162  .00007258  00000+0  23706-3 0  9999
2 20580  28.4723 286.9845 0001573 319.9838  40.0642 15.29731597775859
SL-16 R/B               
1 20625U 90046B   26084.95631898  .00000194  00000+0  12460-3 0  9992
2 20625  70.9952 263.7481 0016296 278.3361  81.5914 14.15014109850696
COSMOS 2084             
1 20663U 90055A   26085.25866395  .00002334  00000+0  17403-3 0  9990
2 20663  62.7892 279.0621 0014463 195.0020 165.0653 15.05737838938817
SL-6 R/B(2)             
1 20666U 90055D   26085.19751570  .00001926  00000+0  15347-3 0  9995
2 20666  62.7831 197.7089 0027500 350.8432   9.2162 15.03672611940677
SL-8 R/B                
1 20775U 90078B   26084.90138620  .00012696  00000+0  37578-3 0  9990
2 20775  82.9019 236.7224 0358956 319.3529  38.1387 14.89557012811716
SL-8 R/B                
1 21088U 91006B   26085.33306362  .00000078  00000+0  62721-4 0  9998
2 21088  82.9449 157.6726 0022009 352.2982  80.3254 13.77496692766369
OKEAN-3                 
1 21397U 91039A   26085.10282420  .00001907  00000+0  13268-3 0  9993
2 21397  82.5165 320.9416 0012343 275.8889  84.0931 15.04900323867504
COSMOS 2151             
1 21422U 91042A   26085.22549678  .00002582  00000+0  20440-3 0  9990
2 21422  82.4944  67.7201 0012735  11.9905 348.1619 15.00172076865673
SL-14 R/B               
1 21423U 91042B   26085.30148125  .00000481  00000+0  57847-4 0  9990
2 21423  82.4953 204.6078 0016993 181.6215 178.4947 14.81845873855539
